*******************************************************************************
JPL/HORIZONS                      (2018 RB)                2020-Dec-13 14:33:38
Rec #:50450886 (+COV) Soln.date: 2018-Oct-04_06:45:00      # obs: 184 (31 days)
 
IAU76/J2000 helio. ecliptic osc. elements (au, days, deg., period=Julian yrs):
 
  EPOCH=  2458369.5 ! 2018-Sep-08.00 (TDB)         Residual RMS= .3637
   EC= .7322321884090806   QR= .5219853388371258   TP= 2458304.240822488
   OM= 349.2968512310241   W=  244.2258373635353   IN= 4.557974609597821
   A= 1.949395394972214    MA= 23.63174360601042   ADIST= 3.376805451107302
   PER= 2.72181            N= .362121373           ANGMOM= .016357376
   DAN= 1.32657            DDN= .6858300000000001  L= 233.4515637
   B= -4.1037043           MOID= .0240916          TP= 2018-Jul-04.7408224880
 
Asteroid physical parameters (km, seconds, rotational period in hours):
   GM= n.a.                RAD= n.a.               ROTPER= n.a.
   H= 21.8                 G= .150                 B-V= n.a.
                           ALBEDO= n.a.            STYP= n.a.
 
ASTEROID comments: 
1: soln ref.= JPL#14, PHA  OCC=7
2: source=ORB
*******************************************************************************
 
 
*******************************************************************************
Ephemeris / WWW_USER Sun Dec 13 14:33:38 2020 Pasadena, USA      / Horizons    
*******************************************************************************
Target body name: (2018 RB)                       {source: JPL#14}
Center body name: Solar System Barycenter (0)     {source: DE431}
Center-site name: BODYCENTRIC
*******************************************************************************
Start time      : A.D. 2014-Jan-01 00:00:00.0000 UT      
Stop  time      : A.D. 2023-Jan-01 00:00:00.0000 UT      
Step-size       : 1440 minutes
*******************************************************************************
Target pole/equ : No model available
Target radii    : (unavailable)                                                
Center geodetic : 0.00000000,0.00000000,0.0000000 {E-lon(deg),Lat(deg),Alt(km)}
Center cylindric: 0.00000000,0.00000000,0.0000000 {E-lon(deg),Dxy(km),Dz(km)}
Center pole/equ : ICRF
Center radii    : (undefined)                                                  
Target primary  : Sun
Vis. interferer : None
Rel. light bend : Sun                             {source: DE431}
Rel. lght bnd GM: 1.3271E+11 km^3/s^2                                          
Small-body perts: Yes                             {source: SB431-N16}
Atmos refraction: NO (AIRLESS)
RA format       : DEG
Time format     : CAL 
EOP file        : eop.201211.p210304                                           
EOP coverage    : DATA-BASED 1962-JAN-20 TO 2020-DEC-11. PREDICTS-> 2021-MAR-03
Units conversion: 1 au= 149597870.700 km, c= 299792.458 km/s, 1 day= 86400.0 s 
Table cut-offs 1: Elevation (-90.0deg=NO ),Airmass     n.a.    , Daylight (NO )
Table cut-offs 2: Solar elongation (  0.0,180.0=NO ),Local Hour Angle( 0.0=NO )
Table cut-offs 3: RA/DEC angular rate (     0.0=NO )                           
*******************************************************************************
Initial IAU76/J2000 heliocentric ecliptic osculating elements (au, days, deg.):
  EPOCH=  2458369.5 ! 2018-Sep-08.00 (TDB)         Residual RMS= .3637         
   EC= .7322321884090806   QR= .5219853388371258   TP= 2458304.240822488       
   OM= 349.2968512310241   W=  244.2258373635353   IN= 4.557974609597821       
  Equivalent ICRF heliocentric equatorial cartesian coordinates (au, au/d):
   X= 1.192229117767389E+00  Y=-2.907917935577110E-01  Z=-1.341695723103250E-01
  VX= 1.534013807980402E-02 VY= 8.380337052708603E-03 VZ= 4.696836738282282E-03
Asteroid physical parameters (km, seconds, rotational period in hours):        
   GM= n.a.                RAD= n.a.               ROTPER= n.a.                
   H= 21.8                 G= .150                 B-V= n.a.                   
                           ALBEDO= n.a.            STYP= n.a.                  
*******************************************************************************
 Date__(UT)__HR:MN                delta     GlxLon     GlxLat
*************************************************************
$$SOE
 2017-Nov-25 00:00     3.9120642124E+08 177.598531  -6.071255
 2017-Nov-26 00:00     3.9030996325E+08 177.669391  -5.952836
 2017-Nov-27 00:00     3.8940923804E+08 177.740548  -5.833862
 2017-Nov-28 00:00     3.8850423101E+08 177.812004  -5.714327
 2017-Nov-29 00:00     3.8759492745E+08 177.883766  -5.594223
 2017-Nov-30 00:00     3.8668131251E+08 177.955835  -5.473544
 2017-Dec-01 00:00     3.8576337118E+08 178.028218  -5.352285
 2017-Dec-02 00:00     3.8484108833E+08 178.100918  -5.230437
 2017-Dec-03 00:00     3.8391444870E+08 178.173940  -5.107995
 2017-Dec-04 00:00     3.8298343685E+08 178.247288  -4.984950
 2017-Dec-05 00:00     3.8204803723E+08 178.320966  -4.861297
 2017-Dec-06 00:00     3.8110823413E+08 178.394980  -4.737028
 2017-Dec-07 00:00     3.8016401170E+08 178.469334  -4.612136
 2017-Dec-08 00:00     3.7921535394E+08 178.544033  -4.486612
 2017-Dec-09 00:00     3.7826224468E+08 178.619081  -4.360451
 2017-Dec-10 00:00     3.7730466762E+08 178.694484  -4.233643
 2017-Dec-11 00:00     3.7634260631E+08 178.770247  -4.106182
 2017-Dec-12 00:00     3.7537604412E+08 178.846375  -3.978059
 2017-Dec-13 00:00     3.7440496429E+08 178.922873  -3.849267
 2017-Dec-14 00:00     3.7342934988E+08 178.999746  -3.719797
 2017-Dec-15 00:00     3.7244918381E+08 179.077000  -3.589640
 2017-Dec-16 00:00     3.7146444880E+08 179.154641  -3.458790
 2017-Dec-17 00:00     3.7047512746E+08 179.232674  -3.327236
 2017-Dec-18 00:00     3.6948120219E+08 179.311105  -3.194970
 2017-Dec-19 00:00     3.6848265524E+08 179.389939  -3.061983
 2017-Dec-20 00:00     3.6747946869E+08 179.469183  -2.928267
 2017-Dec-21 00:00     3.6647162444E+08 179.548843  -2.793812
 2017-Dec-22 00:00     3.6545910423E+08 179.628925  -2.658609
 2017-Dec-23 00:00     3.6444188962E+08 179.709435  -2.522649
 2017-Dec-24 00:00     3.6341996198E+08 179.790380  -2.385921
 2017-Dec-25 00:00     3.6239330252E+08 179.871766  -2.248415
 2017-Dec-26 00:00     3.6136189227E+08 179.953600  -2.110123
 2017-Dec-27 00:00     3.6032571205E+08 180.035890  -1.971034
 2017-Dec-28 00:00     3.5928474251E+08 180.118641  -1.831137
 2017-Dec-29 00:00     3.5823896414E+08 180.201861  -1.690422
 2017-Dec-30 00:00     3.5718835719E+08 180.285557  -1.548878
 2017-Dec-31 00:00     3.5613290176E+08 180.369737  -1.406494
 2018-Jan-01 00:00     3.5507257774E+08 180.454408  -1.263260
 2018-Jan-02 00:00     3.5400736483E+08 180.539578  -1.119163
 2018-Jan-03 00:00     3.5293724253E+08 180.625255  -0.974193
 2018-Jan-04 00:00     3.5186219013E+08 180.711446  -0.828338
 2018-Jan-05 00:00     3.5078218673E+08 180.798161  -0.681585
 2018-Jan-06 00:00     3.4969721124E+08 180.885407  -0.533923
 2018-Jan-07 00:00     3.4860724234E+08 180.973194  -0.385340
 2018-Jan-08 00:00     3.4751225850E+08 181.061529  -0.235822
 2018-Jan-09 00:00     3.4641223801E+08 181.150422  -0.085357
 2018-Jan-10 00:00     3.4530715891E+08 181.239881   0.066069
 2018-Jan-11 00:00     3.4419699906E+08 181.329917   0.218468
 2018-Jan-12 00:00     3.4308173608E+08 181.420539   0.371854
 2018-Jan-13 00:00     3.4196134738E+08 181.511756   0.526240
 2018-Jan-14 00:00     3.4083581014E+08 181.603579   0.681642
 2018-Jan-15 00:00     3.3970510132E+08 181.696017   0.838074
 2018-Jan-16 00:00     3.3856919767E+08 181.789082   0.995549
 2018-Jan-17 00:00     3.3742807569E+08 181.882784   1.154084
 2018-Jan-18 00:00     3.3628171166E+08 181.977133   1.313693
 2018-Jan-19 00:00     3.3513008163E+08 182.072142   1.474392
 2018-Jan-20 00:00     3.3397316140E+08 182.167821   1.636196
 2018-Jan-21 00:00     3.3281092655E+08 182.264182   1.799122
 2018-Jan-22 00:00     3.3164335242E+08 182.361237   1.963187
 2018-Jan-23 00:00     3.3047041409E+08 182.458999   2.128406
 2018-Jan-24 00:00     3.2929208643E+08 182.557480   2.294798
 2018-Jan-25 00:00     3.2810834402E+08 182.656693   2.462380
 2018-Jan-26 00:00     3.2691916123E+08 182.756651   2.631170
 2018-Jan-27 00:00     3.2572451215E+08 182.857368   2.801185
 2018-Jan-28 00:00     3.2452437065E+08 182.958857   2.972445
 2018-Jan-29 00:00     3.2331871031E+08 183.061133   3.144969
 2018-Jan-30 00:00     3.2210750449E+08 183.164211   3.318776
 2018-Jan-31 00:00     3.2089072625E+08 183.268105   3.493886
 2018-Feb-01 00:00     3.1966834842E+08 183.372831   3.670319
 2018-Feb-02 00:00     3.1844034357E+08 183.478404   3.848095
 2018-Feb-03 00:00     3.1720668397E+08 183.584841   4.027237
 2018-Feb-04 00:00     3.1596734167E+08 183.692158   4.207766
 2018-Feb-05 00:00     3.1472228841E+08 183.800372   4.389703
 2018-Feb-06 00:00     3.1347149568E+08 183.909501   4.573071
 2018-Feb-07 00:00     3.1221493471E+08 184.019563   4.757893
 2018-Feb-08 00:00     3.1095257644E+08 184.130576   4.944194
 2018-Feb-09 00:00     3.0968439152E+08 184.242558   5.131996
 2018-Feb-10 00:00     3.0841035036E+08 184.355531   5.321325
 2018-Feb-11 00:00     3.0713042307E+08 184.469513   5.512206
 2018-Feb-12 00:00     3.0584457948E+08 184.584524   5.704664
 2018-Feb-13 00:00     3.0455278916E+08 184.700587   5.898726
 2018-Feb-14 00:00     3.0325502136E+08 184.817724   6.094419
 2018-Feb-15 00:00     3.0195124510E+08 184.935955   6.291770
 2018-Feb-16 00:00     3.0064142907E+08 185.055305   6.490809
 2018-Feb-17 00:00     2.9932554171E+08 185.175797   6.691562
 2018-Feb-18 00:00     2.9800355116E+08 185.297455   6.894061
 2018-Feb-19 00:00     2.9667542529E+08 185.420305   7.098336
 2018-Feb-20 00:00     2.9534113167E+08 185.544373   7.304417
 2018-Feb-21 00:00     2.9400063761E+08 185.669684   7.512336
